[{"OBJECT_NAME":"STARLINK-1735","OBJECT_ID":"2020-070AK","EPOCH":"2026-03-10T00:00:02.999808","MEAN_MOTION":15.6184928,"ECCENTRICITY":0.0004168,"INCLINATION":53.0421,"RA_OF_ASC_NODE":117.3863,"ARG_OF_PERICENTER":189.2532,"MEAN_ANOMALY":133.1933,"EPHEMERIS_TYPE":0,"CLASSIFICATION_TYPE":"U","NORAD_CAT_ID":46565,"ELEMENT_SET_NO":999,"REV_AT_EPOCH":589,"BSTAR":0.0023467321,"MEAN_MOTION_DOT":0.00212485,"MEAN_MOTION_DDOT":0},{"OBJECT_NAME":"STARLINK-3083","OBJECT_ID":"2021-082AE","EPOCH":"2026-03-09T16:37:39.607392","MEAN_MOTION":15.64475884,"ECCENTRICITY":0.00051971,"INCLINATION":69.9688,"RA_OF_ASC_NODE":173.5767,"ARG_OF_PERICENTER":238.8538,"MEAN_ANOMALY":121.2146,"EPHEMERIS_TYPE":0,"CLASSIFICATION_TYPE":"U","NORAD_CAT_ID":49158,"ELEMENT_SET_NO":999,"REV_AT_EPOCH":25005,"BSTAR":0.00056497056,"MEAN_MOTION_DOT":0.00054695,"MEAN_MOTION_DDOT":0}]
